0 FENGYUN 1C DEB
1 31030U 99025BDY 13281.41813738  .00000930  00000-0  53742-3 0  7783
2 31030 098.9750 262.4041 0034054 120.7818 041.7881 14.11202943337985
0 FENGYUN 1C DEB
1 31030U 99025BDY 13283.88019273  .00001136  00000-0  65113-3 0  7793
2 31030 098.9751 264.8650 0034206 113.9584 309.7573 14.11210270338338
0 FENGYUN 1C DEB
1 31030U 99025BDY 13286.44990572  .00001220  00000-0  69685-3 0  7802
2 31030 098.9753 267.4334 0034301 106.9283 044.6339 14.11214609338696
0 FENGYUN 1C DEB
1 31030U 99025BDY 13289.19783803  .00001442  00000-0  81951-3 0  7811
2 31030 098.9760 270.1798 0034275 099.5072 324.8707 14.11225362339086
0 FENGYUN 1C DEB
1 31030U 99025BDY 13292.17456226  .00001347  00000-0  76692-3 0  7820
2 31030 098.9765 273.1544 0034409 091.3767 327.6407 14.11235210339501
